{
  "links" : {
    "next" : "https://api.nasa.gov/neo/rest/v1/feed?start_date=2001-03-09&end_date=2001-03-09&detailed=true&api_key=t0TVs3DtDT2H8Oy2Zy8m2eVrNsAVKAexjcZXUckd",
    "prev" : "https://api.nasa.gov/neo/rest/v1/feed?start_date=2001-03-07&end_date=2001-03-07&detailed=true&api_key=t0TVs3DtDT2H8Oy2Zy8m2eVrNsAVKAexjcZXUckd",
    "self" : "https://api.nasa.gov/neo/rest/v1/feed?start_date=2001-03-08&end_date=2001-03-08&detailed=true&api_key=t0TVs3DtDT2H8Oy2Zy8m2eVrNsAVKAexjcZXUckd"
  },
  "element_count" : 7,
  "near_earth_objects" : {
    "2001-03-08" : [ {
      "links" : {
        "self" : "https://api.nasa.gov/neo/rest/v1/neo/3601677?api_key=t0TVs3DtDT2H8Oy2Zy8m2eVrNsAVKAexjcZXUckd"
      },
      "neo_reference_id" : "3601677",
      "name" : "(2012 FX35)",
      "nasa_jpl_url" : "http://ssd.jpl.nasa.gov/sbdb.cgi?sstr=3601677",
      "absolute_magnitude_h" : 25.8,
      "estimated_diameter" : {
        "kilometers" : {
          "estimated_diameter_min" : 0.0183888672,
          "estimated_diameter_max" : 0.0411187571
        },
        "meters" : {
          "estimated_diameter_min" : 18.388867207,
          "estimated_diameter_max" : 41.1187571041
        },
        "miles" : {
          "estimated_diameter_min" : 0.0114263088,
          "estimated_diameter_max" : 0.0255500032
        },
        "feet" : {
          "estimated_diameter_min" : 60.3309310875,
          "estimated_diameter_max" : 134.9040630575
        }
      },
      "is_potentially_hazardous_asteroid" : false,
      "close_approach_data" : [ {
        "close_approach_date" : "2001-03-08",
        "epoch_date_close_approach" : 984038400000,
        "relative_velocity" : {
          "kilometers_per_second" : "11.675280354",
          "kilometers_per_hour" : "42031.0092743543",
          "miles_per_hour" : "26116.4346238342"
        },
        "miss_distance" : {
          "astronomical" : "0.3472335775",
          "lunar" : "135.0738525391",
          "kilometers" : "51945404",
          "miles" : "32277376"
        },
        "orbiting_body" : "Earth"
      } ],
      "orbital_data" : {
        "orbit_id" : "8",
        "orbit_determination_date" : "2017-04-06 08:50:18",
        "orbit_uncertainty" : "6",
        "minimum_orbit_intersection" : ".00983387",
        "jupiter_tisserand_invariant" : "5.739",
        "epoch_osculation" : "2458000.5",
        "eccentricity" : ".065642098256153",
        "semi_major_axis" : "1.073088451701371",
        "inclination" : "10.83147119383102",
        "ascending_node_longitude" : "183.2425010277723",
        "orbital_period" : "406.0240029595902",
        "perihelion_distance" : "1.002648674117246",
        "perihelion_argument" : "343.1100004745581",
        "aphelion_distance" : "1.143528229285495",
        "perihelion_time" : "2458023.914428972940",
        "mean_anomaly" : "339.2396647271682",
        "mean_motion" : ".8866470882900714",
        "equinox" : "J2000"
      }
    }, {
      "links" : {
        "self" : "https://api.nasa.gov/neo/rest/v1/neo/3666430?api_key=t0TVs3DtDT2H8Oy2Zy8m2eVrNsAVKAexjcZXUckd"
      },
      "neo_reference_id" : "3666430",
      "name" : "(2014 FA7)",
      "nasa_jpl_url" : "http://ssd.jpl.nasa.gov/sbdb.cgi?sstr=3666430",
      "absolute_magnitude_h" : 26.7,
      "estimated_diameter" : {
        "kilometers" : {
          "estimated_diameter_min" : 0.0121494041,
          "estimated_diameter_max" : 0.0271668934
        },
        "meters" : {
          "estimated_diameter_min" : 12.14940408,
          "estimated_diameter_max" : 27.1668934089
        },
        "miles" : {
          "estimated_diameter_min" : 0.0075492874,
          "estimated_diameter_max" : 0.0168807197
        },
        "feet" : {
          "estimated_diameter_min" : 39.8602508817,
          "estimated_diameter_max" : 89.1302305717
        }
      },
      "is_potentially_hazardous_asteroid" : false,
      "close_approach_data" : [ {
        "close_approach_date" : "2001-03-08",
        "epoch_date_close_approach" : 984038400000,
        "relative_velocity" : {
          "kilometers_per_second" : "4.5436409774",
          "kilometers_per_hour" : "16357.1075185906",
          "miles_per_hour" : "10163.6705023154"
        },
        "miss_distance" : {
          "astronomical" : "0.064942826",
          "lunar" : "25.2627601624",
          "kilometers" : "9715309",
          "miles" : "6036813"
        },
        "orbiting_body" : "Earth"
      } ],
      "orbital_data" : {
        "orbit_id" : "7",
        "orbit_determination_date" : "2017-04-06 08:41:58",
        "orbit_uncertainty" : "6",
        "minimum_orbit_intersection" : ".00438796",
        "jupiter_tisserand_invariant" : "5.551",
        "epoch_osculation" : "2458000.5",
        "eccentricity" : ".2053588238373605",
        "semi_major_axis" : "1.119555000795144",
        "inclination" : "5.989274382940425",
        "ascending_node_longitude" : "180.508011818643",
        "orbital_period" : "432.679758015957",
        "perihelion_distance" : ".8896445026106181",
        "perihelion_argument" : "289.7187374156101",
        "aphelion_distance" : "1.34946549897967",
        "perihelion_time" : "2457976.692270151475",
        "mean_anomaly" : "19.80860575676117",
        "mean_motion" : ".8320241317753612",
        "equinox" : "J2000"
      }
    }, {
      "links" : {
        "self" : "https://api.nasa.gov/neo/rest/v1/neo/3745032?api_key=t0TVs3DtDT2H8Oy2Zy8m2eVrNsAVKAexjcZXUckd"
      },
      "neo_reference_id" : "3745032",
      "name" : "(2016 EH1)",
      "nasa_jpl_url" : "http://ssd.jpl.nasa.gov/sbdb.cgi?sstr=3745032",
      "absolute_magnitude_h" : 22.6,
      "estimated_diameter" : {
        "kilometers" : {
          "estimated_diameter_min" : 0.0802703167,
          "estimated_diameter_max" : 0.1794898848
        },
        "meters" : {
          "estimated_diameter_min" : 80.2703167283,
          "estimated_diameter_max" : 179.4898847799
        },
        "miles" : {
          "estimated_diameter_min" : 0.049877647,
          "estimated_diameter_max" : 0.1115298092
        },
        "feet" : {
          "estimated_diameter_min" : 263.3540659348,
          "estimated_diameter_max" : 588.8775935812
        }
      },
      "is_potentially_hazardous_asteroid" : false,
      "close_approach_data" : [ {
        "close_approach_date" : "2001-03-08",
        "epoch_date_close_approach" : 984038400000,
        "relative_velocity" : {
          "kilometers_per_second" : "20.5598936215",
          "kilometers_per_hour" : "74015.6170374036",
          "miles_per_hour" : "45990.4260419356"
        },
        "miss_distance" : {
          "astronomical" : "0.4202563604",
          "lunar" : "163.4797210693",
          "kilometers" : "62869456",
          "miles" : "39065268"
        },
        "orbiting_body" : "Earth"
      } ],
      "orbital_data" : {
        "orbit_id" : "17",
        "orbit_determination_date" : "2017-04-06 08:27:54",
        "orbit_uncertainty" : "5",
        "minimum_orbit_intersection" : ".00776419",
        "jupiter_tisserand_invariant" : "6.680",
        "epoch_osculation" : "2458000.5",
        "eccentricity" : ".2404558552929554",
        "semi_major_axis" : ".8812595436559441",
        "inclination" : "13.99558148484403",
        "ascending_node_longitude" : "153.80798064652",
        "orbital_period" : "302.1719705429266",
        "perihelion_distance" : ".6693555263510744",
        "perihelion_argument" : "231.2077158966427",
        "aphelion_distance" : "1.093163560960814",
        "perihelion_time" : "2457957.097472052012",
        "mean_anomaly" : "51.70866785956859",
        "mean_motion" : "1.19137456512982",
        "equinox" : "J2000"
      }
    } ]
  }
}